ADRAS-J                 
1 58992U 24034A   24272.80887433  .00008751  00000+0  77970-3 0  9997
2 58992  98.2233 250.6949 0044972  68.8904 291.7115 14.95496881 33342
